#cP2022  3  5  0  0  0.00000000      96 ORBIT   JGS FIT  QSS
## 2199 518400.00000000   900.00000000 59643 0.0000000000000
+   28   G01G02G03G05G06G07G08G09G10G12G15G16G17G19G20G21G24
+        G25G26G27G29G30G31G32J01J02J03J07  0  0  0  0  0  0
+          0  0  0  0  0  0  0  0  0  0  0  0  0  0  0  0  0
+          0  0  0  0  0  0  0  0  0  0  0  0  0  0  0  0  0
+          0  0  0  0  0  0  0  0  0  0  0  0  0  0  0  0  0
++         3  3  3  3  3  3  3  3  3  3  3  3  3  3  3  3  3
++         3  3  3  3  3  3  3  5  5  5  9  0  0  0  0  0  0
++         0  0  0  0  0  0  0  0  0  0  0  0  0  0  0  0  0
++         0  0  0  0  0  0  0  0  0  0  0  0  0  0  0  0  0
++         0  0  0  0  0  0  0  0  0  0  0  0  0  0  0  0  0
%c M  cc QZS ccc cccc cccc cccc cccc ccccc ccccc ccccc ccccc
%c cc cc ccc ccc cccc cccc cccc cccc ccccc ccccc ccccc ccccc
%f  1.2500000  1.025000000  0.00000000000  0.000000000000000
%f  0.0000000  0.000000000  0.00000000000  0.000000000000000
%i    0    0    0    0      0      0      0      0         0
%i    0    0    0    0      0      0      0      0         0
/* PROGRAM: POCSEL v.785, DATE: 2022/03/06 17:05:38 UTC     
/* Comment line1                                            
/* Comment line2                                            
/*                                                          
*  2022  3  5 17 15  0.00000000
PG01   6092.573271 -17767.662402 -18913.288261    416.175318 13  7 13 143       
PG02 -21254.852831  16015.227675   1662.170937   -651.861058  6 12 13 142       
PG03  -4561.847185 -17813.260760 -19308.339731   -149.890518 15 12  5 143       
PG05 -12073.233065  10389.155491  21116.035523    -73.615722 12 13 12 143       
PG06 -22919.849843   3219.581110 -13031.145401    221.467474 12 13 11 143       
PG07 -11008.798311 -11524.309159  21679.276647    314.352099 14 10  9 143       
PG08   6563.168083 -23424.059031  10200.915353    -58.662812 10 13 11 143       
PG09  -7928.485371 -23004.694087  10539.445424   -351.297904 11  6 12 143       
PG10  23953.508388  11450.703649  -2864.292734   -338.085542 12 10 14 143       
PG12    101.301460  17116.785035 -20609.319607   -180.366157 14 13  5 143       
PG15  -3662.512861  24394.626919   9008.988650    -79.086260 12 13 11 142       
PG16  16370.451682  -5328.721381  20081.178139   -477.127345 10 14 13 143       
PG17 -13064.025419 -10121.782415 -20350.427796    583.315448 10 12 11 144       
PG19 -14835.849241  -1804.457233 -22217.794256    127.088057  9 13  9 143       
PG20 -19950.402773   5261.794111  16591.027572    516.430044  8 13 13 143       
PG21  14961.937813 -18782.542577  -9928.911679    158.985282 11 11 14 143       
PG24  -8866.233608  19822.968623 -15308.543668    270.535129 13  9 14 143       
PG25  13482.731256  18735.474320 -13670.217085    294.199394 15  9 11 143       
PG26  23761.409336   2281.474102  11881.774354    188.378077  7 13 14 143       
PG27  12356.015456 -14404.724994  18209.617030    143.528873  7 14  7 143       
PG29   4276.790992  24542.486221   9083.729047   -487.775114 13  7 14 143       
PG30 -18461.459586  -5336.070618  18505.562313   -517.033007 14 12  6 143       
PG31  24154.113294  -4549.408292 -10771.740194   -167.577583 12 13 11 143       
PG32  14913.108036   5540.421469 -21159.909425    -79.080082  9 13 11 143       
PJ01 -26292.879450  22605.644604  28901.130665    214.984383 13 17 12 143       
PJ02 -28864.876402  14713.309422 -22443.936325     -1.758885 13 16 14 143       
PJ03 -25577.977168  32278.230328  -4378.437579     -0.825251 14 15 12 143       
PJ07 -25396.256103  33668.005070     -4.703045      0.047786 28 27  9 143       
*  2022  3  5 17 30  0.00000000
PG01   7880.861423 -18718.190625 -17204.261729    416.166990 14  8 14 143       
PG02 -21357.091426  15801.350916  -1195.303815   -651.861373  6 13 13 142       
PG03  -2533.012685 -16830.609866 -20521.030480   -149.906041 15 12  5 143       
PG05 -14205.915871   9284.267077  20307.544001    -73.616901 12 13 13 143       
PG06 -21612.163148   2249.906792 -15259.375046    221.478686 13 13 10 143       
PG07  -8956.086028 -12789.067065  21874.084459    314.354164 15 10 10 143       
PG08   6866.792666 -22116.149575  12653.556210    -58.663687 11 13 11 143       
PG09  -7734.685143 -24085.973274   7968.455696   -351.296260 11  6 13 143       
PG10  24017.590649  11711.359274     -9.131247   -338.095604 13 10 14 143       
PG12  -1917.453050  15918.226738 -21462.779452   -180.371675 14 13  7 143       
PG15  -4185.126287  23222.666456  11466.792606    -79.083872 12 13 11 142       
PG16  18216.180628  -4016.372634  18814.109660   -477.131079 10 14 14 143       
PG17 -12904.412458 -12460.633243 -19139.796663    583.320093 10 12 12 143       
PG19 -14650.844959  -4266.003853 -22017.120358    127.092734  9 13 10 144       
PG20 -21577.950745   4457.269268  14656.288802    516.430117  8 13 14 143       
PG21  16012.275038 -19189.827608  -7280.708823    158.985718 11 12 14 143       
PG24 -10316.535187  20564.955017 -13201.513548    270.532464 13 10 14 143       
PG25  11959.577912  18129.211668 -15762.678016    294.204076 15  9 10 143       
PG26  24764.082500   3034.056033   9461.999846    188.380763  8 13 14 143       
PG27  12564.969602 -12197.177891  19643.504016    143.541154  7 14  6 143       
PG29   4053.555691  25423.278418   6367.433922   -487.779590 13  8 15 143       
PG30 -16662.357083  -6567.767483  19756.405920   -517.035034 14 12  5 143       
PG31  23102.849857  -3703.531383 -13126.468360   -167.578966 13 13 11 143       
PG32  14946.675483   7942.954007 -20377.877877    -79.086626 10 13 12 143       
PJ01 -26167.703214  22191.459872  29419.976727    214.966001 13 17 13 143       
PJ02 -29820.059926  14646.719412 -21417.460202     -1.759119 13 16 15 143       
PJ03 -24886.312033  32269.370748  -6157.207745     -0.825349 14 16 12 143       
PJ07 -25395.369710  33668.408234     -1.154701      0.047706 28 27  8 143       
*  2022  3  5 17 45  0.00000000
PG01   9444.447299 -19649.089240 -15201.084012    416.158652 14  9 15 143       
PG02 -21226.132823  15382.335595  -4032.217231   -651.862044  7 13 13 142       
PG03   -346.885902 -15910.692047 -21384.583009   -149.921586 15 12  7 144       
PG05 -16287.378084   8334.603270  19145.842463    -73.617981 12 13 13 143       
PG06 -20165.991046   1070.125369 -17224.746690    221.489834 13 14  9 143       
PG07  -6966.328394 -14161.810957  21705.533940    314.356049 15 11 11 143       
PG08   7267.498448 -20561.146816  14884.189273    -58.663501 11 14 10 143       
PG09  -7563.428934 -24878.058309   5259.734009   -351.294607 12  7 13 143       
PG10  23803.698143  11834.040141   2846.199099   -338.105461 14 10 14 143       
PG12  -4064.879194  14794.722089 -21956.339320   -180.377109 15 13  9 143       
PG15  -4820.676032  21811.573071  13719.830438    -79.081036 12 14 11 142       
PG16  19984.450227  -2889.078339  17220.841692   -477.135654 10 14 14 143       
PG17 -12866.722902 -14643.261008 -17587.329798    583.324985 10 12 12 144       
PG19 -14603.906534  -6689.518746 -21447.165920    127.097208  9 14 11 144       
PG20 -23018.755853   3795.944870  12466.545532    516.429756  7 13 14 143       
PG21  16794.705829 -19448.925609  -4499.381003    158.986082 10 13 15 143       
PG24 -11541.210740  21215.501260 -10866.439098    270.529781 13 11 15 143       
PG25  10207.749417  17513.324419 -17592.131259    294.208814 16 10  9 143       
PG26  25541.133567   3631.166995   6881.597797    188.383489  9 13 15 143       
PG27  12903.996487  -9862.068076  20729.902569    143.553445  7 14  7 143       
PG29   3873.369143  25999.873533   3541.047422   -487.783747 13  9 15 143       
PG30 -14823.405543  -7955.000989  20671.311544   -517.036993 15 13  6 143       
PG31  21888.684917  -2662.781164 -15261.972019   -167.580811 13 14 11 143       
PG32  15093.216806  10229.917137 -19242.431340    -79.093157 10 13 12 143       
PJ01 -26117.776603  21783.770353  29835.958379    214.947658 13 17 13 143       
PJ02 -30749.289514  14690.474853 -20279.060258     -1.759403 13 17 15 143       
PJ03 -24194.815264  32159.768028  -7907.567379     -0.825464 14 16 12 143       
PJ07 -25394.493755  33668.777783      2.398542      0.047672 28 27  8 143       
EOF
